ORBCOMM FM24            
1 25478U 98053D   26004.45017825  .00001754  00000+0  61196-3 0  9997
2 25478  45.0083  34.3983 0002666 217.5332 142.5331 14.38728675426429
ORBCOMM FM25            
1 25479U 98053E   26004.77292061  .00001697  00000+0  59399-3 0  9998
2 25479  45.0075  31.1689 0004991 204.4174 155.6439 14.38698263426761
ORBCOMM FM26            
1 25480U 98053F   26004.43582935  .00001581  00000+0  56802-3 0  9993
2 25480  45.0082  30.7406 0007100 209.9604 150.0839 14.37657813426607
ORBCOMM FM27            
1 25481U 98053G   26004.40879683  .00001956  00000+0  67720-3 0  9997
2 25481  45.0058  33.0219 0002430 248.4482 111.6107 14.38734145426642
ORBCOMM FM28            
1 25482U 98053H   26004.28543048  .00001757  00000+0  61127-3 0  9991
2 25482  45.0061 330.8649 0005417 250.8071 109.2192 14.38853930427317
ORBCOMM FM30            
1 25980U 99065A   26003.98588285  .00001379  00000+0  50014-3 0  9999
2 25980  45.0299 218.9200 0006111 300.8099  59.2148 14.37817491363348
ORBCOMM FM31            
1 25981U 99065B   26004.87195369  .00001214  00000+0  44670-3 0  9995
2 25981  45.0211 208.1719 0003703 334.3579  25.7086 14.37744809363024
ORBCOMM FM32            
1 25982U 99065C   26004.91244509  .00001208  00000+0  45292-3 0  9996
2 25982  45.0144 225.9064 0006196 327.4973  32.5493 14.36806795363604
